{
    "links": {
        "self": "http://www.neowsapp.com/rest/v1/neo/3742123?api_key=iIulBulltgU6a56xZRHN4H3l9WmuAYTsLGpBGhQ2"
    },
    "id": "3742123",
    "neo_reference_id": "3742123",
    "name": "(2016 CX31)",
    "designation": "2016 CX31",
    "nasa_jpl_url": "http://ssd.jpl.nasa.gov/sbdb.cgi?sstr=3742123",
    "absolute_magnitude_h": 22.6,
    "estimated_diameter": {
        "kilometers": {
            "estimated_diameter_min": 0.0802703167,
            "estimated_diameter_max": 0.1794898848
        },
        "meters": {
            "estimated_diameter_min": 80.2703167283,
            "estimated_diameter_max": 179.4898847799
        },
        "miles": {
            "estimated_diameter_min": 0.049877647,
            "estimated_diameter_max": 0.1115298092
        },
        "feet": {
            "estimated_diameter_min": 263.3540659348,
            "estimated_diameter_max": 588.8775935812
        }
    },
    "is_potentially_hazardous_asteroid": false,
    "close_approach_data": [
        {
            "close_approach_date": "2014-02-07",
            "close_approach_date_full": "2014-Feb-07 01:28",
            "epoch_date_close_approach": 1391736480000,
            "relative_velocity": {
                "kilometers_per_second": "19.1831453851",
                "kilometers_per_hour": "69059.3233864",
                "miles_per_hour": "42910.777911955"
            },
            "miss_distance": {
                "astronomical": "0.4481914909",
                "lunar": "174.3464899601",
                "kilometers": "67048492.390764383",
                "miles": "41662001.2789511654"
            },
            "orbiting_body": "Earth"
        },
        {
            "close_approach_date": "2016-02-05",
            "close_approach_date_full": "2016-Feb-05 08:36",
            "epoch_date_close_approach": 1454661360000,
            "relative_velocity": {
                "kilometers_per_second": "17.7463830624",
                "kilometers_per_hour": "63886.9790245",
                "miles_per_hour": "39696.8842721955"
            },
            "miss_distance": {
                "astronomical": "0.3246127217",
                "lunar": "126.2743487413",
                "kilometers": "48561371.741222779",
                "miles": "30174637.1834771902"
            },
            "orbiting_body": "Earth"
        },
        {
            "close_approach_date": "2018-02-01",
            "close_approach_date_full": "2018-Feb-01 04:57",
            "epoch_date_close_approach": 1517461020000,
            "relative_velocity": {
                "kilometers_per_second": "17.5485388553",
                "kilometers_per_hour": "63174.7398792481",
                "miles_per_hour": "39254.326565525"
            },
            "miss_distance": {
                "astronomical": "0.4242037928",
                "lunar": "165.0152753992",
                "kilometers": "63459983.848801336",
                "miles": "39432205.4679809968"
            },
            "orbiting_body": "Earth"
        }
    ],
    "orbital_data": {
        "orbit_id": "5",
        "orbit_determination_date": "2017-11-04 06:43:17",
        "first_observation_date": "2016-02-05",
        "last_observation_date": "2016-03-15",
        "data_arc_in_days": 39,
        "observations_used": 21,
        "orbit_uncertainty": "7",
        "minimum_orbit_intersection": ".324467",
        "jupiter_tisserand_invariant": "4.115",
        "epoch_osculation": "2459000.5",
        "eccentricity": ".2083211915922083",
        "semi_major_axis": "1.616370826258543",
        "inclination": "34.71384410673477",
        "ascending_node_longitude": "311.3159365878918",
        "orbital_period": "750.6023708062123",
        "perihelion_distance": "1.279646529677481",
        "perihelion_argument": "212.6959511580749",
        "aphelion_distance": "1.953095122839605",
        "perihelion_time": "2458961.264673692694",
        "mean_anomaly": "18.81784286860028",
        "mean_motion": ".4796147920680408",
        "equinox": "J2000",
        "orbit_class": {
            "orbit_class_type": "AMO",
            "orbit_class_description": "Near-Earth asteroid orbits similar to that of 1221 Amor",
            "orbit_class_range": "1.017 AU < q (perihelion) < 1.3 AU"
        }
    },
    "is_sentry_object": false
}